CCSDS_OMM_VERS = 2.0
CREATION_DATE  = 
ORIGINATOR     = 

OBJECT_NAME    = CZ-2C R/B
OBJECT_ID      = 2022-132E
CENTER_NAME    = EARTH
REF_FRAME      = TEME
TIME_SYSTEM    = UTC
MEAN_ELEMENT_THEORY = SGP/SGP4

EPOCH          = 2025-12-20T12:30:54.398016
MEAN_MOTION    = 15.55263995
ECCENTRICITY   = .0021913
INCLINATION    = 97.2940
RA_OF_ASC_NODE = 350.8709
ARG_OF_PERICENTER = 30.7997
MEAN_ANOMALY   = 329.4538

EPHEMERIS_TYPE = 0
CLASSIFICATION_TYPE = U
NORAD_CAT_ID   = 54039
ELEMENT_SET_NO = 999
REV_AT_EPOCH   = 17804
BSTAR          = .32707E-3
MEAN_MOTION_DOT = .22301E-3
MEAN_MOTION_DDOT = 0

CCSDS_OMM_VERS = 2.0
CREATION_DATE  = 
ORIGINATOR     = 

OBJECT_NAME    = GSLV R/B
OBJECT_ID      = 2022-138AN
CENTER_NAME    = EARTH
REF_FRAME      = TEME
TIME_SYSTEM    = UTC
MEAN_ELEMENT_THEORY = SGP/SGP4

EPOCH          = 2025-12-20T11:31:52.453344
MEAN_MOTION    = 14.96165446
ECCENTRICITY   = .00241535
INCLINATION    = 87.3823
RA_OF_ASC_NODE = 192.8814
ARG_OF_PERICENTER = 80.2368
MEAN_ANOMALY   = 280.1589

EPHEMERIS_TYPE = 0
CLASSIFICATION_TYPE = U
NORAD_CAT_ID   = 54149
ELEMENT_SET_NO = 999
REV_AT_EPOCH   = 17208
BSTAR          = .14728546E-3
MEAN_MOTION_DOT = .1697E-4
MEAN_MOTION_DDOT = 0

CCSDS_OMM_VERS = 2.0
CREATION_DATE  = 
ORIGINATOR     = 

OBJECT_NAME    = XRISM
OBJECT_ID      = 2023-137A
CENTER_NAME    = EARTH
REF_FRAME      = TEME
TIME_SYSTEM    = UTC
MEAN_ELEMENT_THEORY = SGP/SGP4

EPOCH          = 2025-12-20T13:35:30.519744
MEAN_MOTION    = 15.10405812
ECCENTRICITY   = .0007689
INCLINATION    = 31.0028
RA_OF_ASC_NODE = 75.0095
ARG_OF_PERICENTER = 323.7715
MEAN_ANOMALY   = 36.2402

EPHEMERIS_TYPE = 0
CLASSIFICATION_TYPE = U
NORAD_CAT_ID   = 57800
ELEMENT_SET_NO = 999
REV_AT_EPOCH   = 12581
BSTAR          = .19838E-3
MEAN_MOTION_DOT = .3437E-4
MEAN_MOTION_DDOT = 0

CCSDS_OMM_VERS = 2.0
CREATION_DATE  = 
ORIGINATOR     = 

OBJECT_NAME    = SZ-21 MODULE
OBJECT_ID      = 2025-246C
CENTER_NAME    = EARTH
REF_FRAME      = TEME
TIME_SYSTEM    = UTC
MEAN_ELEMENT_THEORY = SGP/SGP4

EPOCH          = 2025-12-20T15:44:09.666816
MEAN_MOTION    = 15.62874588
ECCENTRICITY   = .0005539
INCLINATION    = 41.4776
RA_OF_ASC_NODE = 327.7431
ARG_OF_PERICENTER = 301.9877
MEAN_ANOMALY   = 58.0424

EPHEMERIS_TYPE = 0
CLASSIFICATION_TYPE = U
NORAD_CAT_ID   = 66515
ELEMENT_SET_NO = 999
REV_AT_EPOCH   = 568
BSTAR          = .22369E-3
MEAN_MOTION_DOT = .20514E-3
MEAN_MOTION_DDOT = 0

