CZ-2C R/B               
1 54039U 22132E   25354.52146294  .00022301  00000+0  32707-3 0  9992
2 54039  97.2940 350.8709 0021913  30.7997 329.4538 15.55263995178041
GSLV R/B                
1 54149U 22138AN  25354.48046821  .00001697  00000+0  14729-3 0  9999
2 54149  87.3823 192.8814 0024153  80.2368 280.1589 14.96165446172088
XRISM                   
1 57800U 23137A   25354.56632547  .00003437  00000+0  19838-3 0  9991
2 57800  31.0028  75.0095 0007689 323.7715  36.2402 15.10405813125812
SZ-21 MODULE            
1 66515U 25246C   25354.65566744  .00020514  00000+0  22369-3 0  9990
2 66515  41.4776 327.7431 0005539 301.9877  58.0424 15.62874588  5684
